NORAD_CAT_ID,OBJECT_NAME,OBJECT_TYPE,EPOCH,MEAN_MOTION,ECCENTRICITY,INCLINATION,RA_OF_ASC_NODE,ARG_OF_PERICENTER,MEAN_ANOMALY,BSTAR,MEAN_MOTION_DOT,MEAN_MOTION_DDOT,TLE_LINE0,TLE_LINE1,TLE_LINE2,SEMIMAJOR_AXIS,PERIOD,APOGEE,PERIGEE,DECAYED
53438.0,STARLINK-4526,PAYLOAD,2024-04-27 10:37:04,15.08844416,0.0001311,53.2157,282.0028,92.1395,267.9747,0.0001358,1.874e-05,0.0,0 STARLINK-4526,1 53438U 22097BC  24118.44241061  .00001874  00000-0  13580-3 0  9991,2 53438  53.2157 282.0028 0001311  92.1395 267.9747 15.08844416 95956,6917.867,95.437,540.639,538.825,0.0
53438.0,STARLINK-4526,PAYLOAD,2024-04-27 18:33:59,15.08851531,0.0001355,53.2153,280.5183,80.8736,279.2409,0.00025906,3.839e-05,0.0,0 STARLINK-4526,1 53438U 22097BC  24118.77360623  .00003839  00000-0  25906-3 0  9991,2 53438  53.2153 280.5183 0001355  80.8736 279.2409 15.08851531 96002,6917.845,95.437,540.648,538.773,0.0
53438.0,STARLINK-4526,PAYLOAD,2024-04-28 04:06:19,15.08839697,0.000175,53.2168,278.7345,70.2648,289.8533,8.668e-05,1.092e-05,0.0,0 STARLINK-4526,1 53438U 22097BC  24119.17105384  .00001092  00000-0  86680-4 0  9993,2 53438  53.2168 278.7345 0001750  70.2648 289.8533 15.08839697 95576,6917.881,95.438,540.957,538.536,0.0
53438.0,STARLINK-4526,PAYLOAD,2024-04-28 20:00:10,15.08836323,0.0001498,53.2179,275.7559,105.5775,254.5382,-8.4511e-05,-1.633e-05,0.0,0 STARLINK-4526,1 53438U 22097BC  24119.83345545 -.00001633  00000-0 -84511-4 0  9995,2 53438  53.2179 275.7559 0001498 105.5775 254.5382 15.08836323 96164,6917.892,95.438,540.793,538.72,0.0
53438.0,STARLINK-4526,PAYLOAD,2024-04-29 03:57:06,15.0883577,0.0001458,53.2181,274.2693,90.191,269.9249,-8.4092e-05,-1.626e-05,0.0,0 STARLINK-4526,1 53438U 22097BC  24120.16465706 -.00001626  00000-0 -84092-4 0  9991,2 53438  53.2181 274.2693 0001458  90.1910 269.9249 15.08835770 95724,6917.893,95.438,540.767,538.75,0.0
53438.0,STARLINK-4526,PAYLOAD,2024-04-29 13:29:25,15.08839446,0.0001383,53.2167,272.4896,74.6628,285.4517,7.9583e-05,9.79e-06,0.0,0 STARLINK-4526,1 53438U 22097BC  24120.56209784  .00000979  00000-0  79583-4 0  9994,2 53438  53.2167 272.4896 0001383  74.6628 285.4517 15.08839446 96279,6917.882,95.438,540.704,538.79,0.0
53438.0,STARLINK-4526,PAYLOAD,2024-04-29 19:50:57,15.08846691,0.0001291,53.2163,271.2981,83.1622,276.9517,9.4286e-05,1.213e-05,0.0,0 STARLINK-4526,1 53438U 22097BC  24120.82705295  .00001213  00000-0  94286-4 0  9990,2 53438  53.2163 271.2981 0001291  83.1622 276.9517 15.08846691 95829,6917.86,95.437,540.618,538.832,0.0
53438.0,STARLINK-4526,PAYLOAD,2024-04-30 13:20:12,15.08838375,0.0001391,53.2161,268.0271,76.0162,284.0985,0.0002489,3.675e-05,0.0,0 STARLINK-4526,1 53438U 22097BC  24121.55570004  .00003675  00000-0  24890-3 0  9996,2 53438  53.2161 268.0271 0001391  76.0162 284.0985 15.08838375 95935,6917.885,95.438,540.713,538.788,0.0
53438.0,STARLINK-4526,PAYLOAD,2024-04-30 14:55:35,15.08839302,0.000138,53.2162,267.7298,75.2191,284.8954,0.00024741,3.652e-05,0.0,0 STARLINK-4526,1 53438U 22097BC  24121.62193931  .00003652  00000-0  24741-3 0  9994,2 53438  53.2162 267.7298 0001380  75.2191 284.8954 15.08839302 96433,6917.883,95.438,540.702,538.793,0.0
53438.0,STARLINK-4526,PAYLOAD,2024-04-30 16:30:58,15.08843969,0.0001291,53.2166,267.4318,73.4865,286.6268,0.00016352,2.316e-05,0.0,0 STARLINK-4526,1 53438U 22097BC  24121.68817609  .00002316  00000-0  16352-3 0  9990,2 53438  53.2166 267.4318 0001291  73.4865 286.6268 15.08843969 96449,6917.868,95.437,540.626,538.84,0.0
53438.0,STARLINK-4526,PAYLOAD,2024-05-01 10:00:12,15.08843338,0.0001323,53.2168,264.1619,79.5854,280.5287,0.0001058,1.396e-05,0.0,0 STARLINK-4526,1 53438U 22097BC  24122.41681703  .00001396  00000-0  10580-3 0  9990,2 53438  53.2168 264.1619 0001323  79.5854 280.5287 15.08843338 96556,6917.87,95.437,540.65,538.82,0.0
53438.0,STARLINK-4526,PAYLOAD,2024-05-01 16:21:44,15.08850211,0.0001302,53.2168,262.9727,80.4083,279.7056,0.00015693,2.211e-05,0.0,0 STARLINK-4526,1 53438U 22097BC  24122.68177020  .00002211  00000-0  15693-3 0  9998,2 53438  53.2168 262.9727 0001302  80.4083 279.7056 15.08850211 96107,6917.849,95.437,540.615,538.813,0.0
53438.0,STARLINK-4526,PAYLOAD,2024-05-02 13:01:47,15.08832049,0.0001244,53.2168,259.1098,88.491,271.6225,-4.6967e-05,-1.035e-05,0.0,0 STARLINK-4526,1 53438U 22097BC  24123.54290608 -.00001035  00000-0 -46967-4 0  9996,2 53438  53.2168 259.1098 0001244  88.4910 271.6225 15.08832049 96230,6917.905,95.438,540.63,538.909,0.0
53438.0,STARLINK-4526,PAYLOAD,2024-05-02 14:37:10,15.08833969,0.0001396,53.2176,258.8115,88.4245,271.6907,-3.5642e-05,-8.55e-06,0.0,0 STARLINK-4526,1 53438U 22097BC  24123.60914427 -.00000855  00000-0 -35642-4 0  9992,2 53438  53.2176 258.8115 0001396  88.4245 271.6907 15.08833969 96738,6917.899,95.438,540.73,538.798,0.0
53438.0,STARLINK-4526,PAYLOAD,2024-05-03 01:44:51,15.0883839,0.0001311,53.217,256.7293,90.2341,269.8802,3.5742e-05,2.81e-06,0.0,0 STARLINK-4526,1 53438U 22097BC  24124.07282001  .00000281  00000-0  35742-4 0  9992,2 53438  53.2170 256.7293 0001311  90.2341 269.8802 15.08838390 96311,6917.885,95.438,540.657,538.843,0.0
53438.0,STARLINK-4526,PAYLOAD,2024-05-03 12:52:32,15.08855873,0.0001594,53.2179,254.6484,102.157,257.9601,-4.795e-05,-1.051e-05,0.0,0 STARLINK-4526,1 53438U 22097BC  24124.53649124 -.00001051  00000-0 -47950-4 0  9998,2 53438  53.2179 254.6484 0001594 102.1570 257.9601 15.08855873 96386,6917.832,95.437,540.8,538.594,0.0
53438.0,STARLINK-4526,PAYLOAD,2024-05-03 14:27:55,15.08856212,0.0001576,53.2181,254.3512,100.1513,259.9657,-1.6474e-05,-5.5e-06,0.0,0 STARLINK-4526,1 53438U 22097BC  24124.60272996 -.00000550  00000-0 -16474-4 0  9995,2 53438  53.2181 254.3512 0001576 100.1513 259.9657 15.08856212 96889,6917.831,95.437,540.786,538.606,0.0
53438.0,STARLINK-4526,PAYLOAD,2024-05-03 16:03:19,15.08851926,0.0001343,53.2168,254.0528,93.1368,266.9778,9.8947e-05,1.288e-05,0.0,0 STARLINK-4526,1 53438U 22097BC  24124.66897006  .00001288  00000-0  98947-4 0  9998,2 53438  53.2168 254.0528 0001343  93.1368 266.9778 15.08851926 96899,6917.844,95.437,540.638,538.78,0.0
53438.0,STARLINK-4526,PAYLOAD,2024-05-04 01:35:38,15.08842682,0.0001564,53.2147,252.265,72.276,287.8403,0.000139,1.925e-05,0.0,0 STARLINK-4526,1 53438U 22097BC  24125.06641512  .00001925  00000-0  13900-3 0  9995,2 53438  53.2147 252.2650 0001564  72.2760 287.8403 15.08842682 96460,6917.872,95.437,540.819,538.655,0.0
53438.0,STARLINK-4526,PAYLOAD,2024-05-04 12:43:21,15.08824489,0.0001181,53.2168,250.1872,87.2511,272.8616,7.1392e-05,8.48e-06,0.0,0 STARLINK-4526,1 53438U 22097BC  24125.53011208  .00000848  00000-0  71392-4 0  9993,2 53438  53.2168 250.1872 0001181  87.2511 272.8616 15.08824489 96534,6917.928,95.439,540.61,538.976,0.0
53438.0,STARLINK-4526,PAYLOAD,2024-05-04 15:54:07,15.08831657,0.0001295,53.2155,249.5906,78.9326,281.1812,7.5154e-06,-1.68e-06,0.0,0 STARLINK-4526,1 53438U 22097BC  24125.66258437 -.00000168  00000-0  75154-5 0  9991,2 53438  53.2155 249.5906 0001295  78.9326 281.1812 15.08831657 96555,6917.906,95.438,540.667,538.875,0.0
53438.0,STARLINK-4526,PAYLOAD,2024-05-05 12:34:07,15.08850259,0.0001337,53.2157,245.7256,77.8462,282.268,0.00035467,5.363e-05,0.0,0 STARLINK-4526,1 53438U 22097BC  24126.52369881  .00005363  00000-0  35467-3 0  9995,2 53438  53.2157 245.7256 0001337  77.8462 282.2680 15.08850259 96687,6917.849,95.437,540.639,538.789,0.0
53438.0,STARLINK-4526,PAYLOAD,2024-05-05 14:09:30,15.08852476,0.0001304,53.2155,245.4282,75.4671,284.6466,0.00052476,8.076e-05,0.0,0 STARLINK-4526,1 53438U 22097BC  24126.58993893  .00008076  00000-0  52476-3 0  9990,2 53438  53.2155 245.4282 0001304  75.4671 284.6466 15.08852476 97188,6917.842,95.437,540.609,538.805,0.0
53438.0,STARLINK-4526,PAYLOAD,2024-05-06 14:00:17,15.0885322,0.000132,53.2149,240.9674,83.9911,276.1232,0.00040634,6.187e-05,0.0,0 STARLINK-4526,1 53438U 22097BC  24127.58353542  .00006187  00000-0  40634-3 0  9996,2 53438  53.2149 240.9674 0001320  83.9911 276.1232 15.08853220 96842,6917.84,95.437,540.618,538.792,0.0
53438.0,STARLINK-4526,PAYLOAD,2024-05-07 13:51:04,15.0884196,0.0001428,53.2174,236.5085,87.1639,272.9517,-2.4198e-05,-6.73e-06,0.0,0 STARLINK-4526,1 53438U 22097BC  24128.57713725 -.00000673  00000-0 -24198-4 0  9993,2 53438  53.2174 236.5085 0001428  87.1639 272.9517 15.08841960 96993,6917.874,95.437,540.727,538.752,0.0
53438.0,STARLINK-4526,PAYLOAD,2024-05-08 12:06:29,15.08836541,0.0001304,53.216,232.3442,92.8555,267.2586,3.7161e-05,3.04e-06,0.0,0 STARLINK-4526,1 53438U 22097BC  24129.50450249  .00000304  00000-0  37161-4 0  9999,2 53438  53.2160 232.3442 0001304  92.8555 267.2586 15.08836541 97131,6917.891,95.438,540.658,538.854,0.0
53438.0,STARLINK-4526,PAYLOAD,2024-05-08 13:41:51,15.08841735,0.0001301,53.2162,232.0454,95.5646,264.5494,3.9019e-05,3.33e-06,0.0,0 STARLINK-4526,1 53438U 22097BC  24129.57073952  .00000333  00000-0  39019-4 0  9994,2 53438  53.2162 232.0454 0001301  95.5646 264.5494 15.08841735 97635,6917.875,95.437,540.64,538.84,0.0
53438.0,STARLINK-4526,PAYLOAD,2024-05-09 11:57:15,15.08851003,0.0001385,53.2163,227.8839,88.069,272.0461,0.00043127,6.584e-05,0.0,0 STARLINK-4526,1 53438U 22097BC  24130.49809961  .00006584  00000-0  43127-3 0  9992,2 53438  53.2163 227.8839 0001385  88.0690 272.0461 15.08851003 97281,6917.847,95.437,540.67,538.754,0.0
53438.0,STARLINK-4526,PAYLOAD,2024-05-09 13:32:38,15.08857751,0.000134,53.2169,227.5878,93.5109,266.6037,0.00054297,8.368e-05,0.0,0 STARLINK-4526,1 53438U 22097BC  24130.56433694  .00008368  00000-0  54297-3 0  9998,2 53438  53.2169 227.5878 0001340  93.5109 266.6037 15.08857751 97783,6917.826,95.436,540.618,538.764,0.0
53438.0,STARLINK-4526,PAYLOAD,2024-05-09 23:04:57,15.0885004,0.0001363,53.2162,225.8018,93.2408,266.874,0.00034572,5.22e-05,0.0,0 STARLINK-4526,1 53438U 22097BC  24130.96177960  .00005220  00000-0  34572-3 0  9991,2 53438  53.2162 225.8018 0001363  93.2408 266.8740 15.08850040 97357,6917.85,95.437,540.658,538.772,0.0
